STARLINK-33915          
1 63708U 25087M   26148.20770569  .00010347  00000+0  36087-3 0  9994
2 63708  53.1581 210.2390 0000796  92.1947 267.9145 15.30209807 61376
STARLINK-33862          
1 63709U 25087N   26148.20138874  .00028417  00000+0  96742-3 0  9993
2 63709  53.1579 210.2021 0001243  91.8282 268.2861 15.30216592 61379
STARLINK-33920          
1 63710U 25087P   26148.20369337  .00020906  00000+0  68314-3 0  9994
2 63710  53.1580 210.2188 0000864  74.4124 285.6973 15.31718940 61379
STARLINK-33580          
1 63711U 25087Q   26148.20836370  .00021119  00000+0  68985-3 0  9992
2 63711  53.1594 210.2451 0001645 114.7228 245.3945 15.31725172 61376
STARLINK-33783          
1 63712U 25087R   26148.19435807  .00025566  00000+0  83207-3 0  9995
2 63712  53.1590 210.1600 0001371  92.4904 267.6254 15.31728148 61373
STARLINK-33773          
1 63713U 25087S   26148.15702265  .00020396  00000+0  66688-3 0  9997
2 63713  53.1599 209.9251 0001369  82.9353 277.1804 15.31716451 61371
STARLINK-33745          
1 63714U 25087T   26147.46604186  .00005045  00000+0  18238-3 0  9996
2 63714  53.1591 213.4335 0001241  81.7230 278.3911 15.30194092 61267
STARLINK-33728          
1 63715U 25087U   26147.47342957  .00018195  00000+0  62513-3 0  9998
2 63715  53.1586 213.4785 0001209  79.7186 280.3951 15.30190067 61267
STARLINK-33749          
1 63716U 25087V   26148.26427884  .00015500  00000+0  51003-3 0  9999
2 63716  53.1566 209.8805 0001130  97.9523 262.1607 15.31711687 61385
STARLINK-33725          
1 63717U 25087W   26148.19505438  .00021569  00000+0  73783-3 0  9995
2 63717  53.1589 210.1604 0001451 100.2296 259.8868 15.30218153 61374
STARLINK-33641          
1 63718U 25087X   26148.18035896  .00023062  00000+0  75208-3 0  9995
2 63718  53.1598 210.0687 0001373  92.0777 268.0382 15.31722902 61376
STARLINK-33727          
1 63719U 25087Y   26147.44190210  .00029737  00000+0  88763-3 0  9991
2 63719  53.1604 212.5764 0001212  80.8755 279.2385 15.34404541 61276
STARLINK-33757          
1 63720U 25087Z   26148.27091974  .00021833  00000+0  74662-3 0  9994
2 63720  53.1576 209.9194 0001132  92.6364 267.4767 15.30220571 61381
STARLINK-33774          
1 63721U 25087AA  26147.60244038  .00023321  00000+0  76043-3 0  9991
2 63721  53.1569 212.8667 0000989  74.9028 285.2083 15.31721217 61283
STARLINK-33767          
1 63722U 25087AB  26148.25827815  .00019222  00000+0  65961-3 0  9996
2 63722  53.1581 209.8419 0001176  89.4392 270.6744 15.30191050 61381
STARLINK-33806          
1 63723U 25087AC  26148.19927481  .00014272  00000+0  49285-3 0  9991
2 63723  53.1588 210.1837 0001333  91.7028 268.4126 15.30214261 61373
KUIPER-00008            
1 63724U 25088A   26148.21881112  .00003827  00000+0  53064-3 0  9990
2 63724  51.8995  96.3306 0000908  91.8214 268.2852 14.79937024 59823
KUIPER-00009            
1 63725U 25088B   26148.16595430  .00001863  00000+0  27313-3 0  9996
2 63725  51.9022 114.1835 0000423  38.2079 321.8914 14.79965906 59564
KUIPER-00010            
1 63726U 25088C   26148.25781657  .00000987  00000+0  15844-3 0  9997
2 63726  51.9023  91.2532 0000803  70.6751 289.4298 14.79934952 59510
KUIPER-00011            
1 63727U 25088D   26147.60820215  .00000366  00000+0  76964-4 0  9992
2 63727  51.8989 101.6786 0000916  49.4596 310.6446 14.79939137 59448
KUIPER-00012            
1 63728U 25088E   26148.19837914  .00001883  00000+0  27604-3 0  9993
2 63728  51.9012  84.0023 0000717  97.9628 262.1416 14.79919693 59698
KUIPER-00013            
1 63729U 25088F   26148.19709542 -.00000496  00000+0 -36117-4 0  9990
2 63729  51.9030 116.5262 0000908  22.1045 337.9957 14.79929780 59341
KUIPER-00014            
1 63730U 25088G   26148.16331549 -.00000735  00000+0 -67427-4 0  9991
2 63730  51.9006 116.6162 0000398  44.6694 315.4300 14.79925112 59155
KUIPER-00015            
1 63731U 25088H   26148.11877787  .00002089  00000+0  30282-3 0  9996
2 63731  51.8975 126.8876 0000663  47.8220 312.2799 14.79953508 59461
KUIPER-00016            
1 63732U 25088J   26148.22811452  .00001794  00000+0  26446-3 0  9995
2 63732  51.9003 118.8509 0000767  83.5340 276.5710 14.79906770 59121
KUIPER-00018            
1 63733U 25088K   26148.13763272 -.00000241  00000+0 -26196-5 0  9994
2 63733  51.9045 109.2700 0000727  99.5463 260.5582 14.79916989 59251
KUIPER-00019            
1 63734U 25088L   26148.09678526  .00000564  00000+0  10302-3 0  9993
2 63734  51.9005 108.2195 0000456 158.4185 201.6797 14.79930084 59267
KUIPER-00020            
1 63735U 25088M   26148.27000394  .00001586  00000+0  23700-3 0  9997
2 63735  51.9018 111.1941 0001204  19.5298 340.5710 14.79938530 59440
KUIPER-00021            
1 63736U 25088N   26148.10118168 -.00000092  00000+0  17022-4 0  9992
2 63736  51.9005 111.8985 0001271  89.1757 270.9351 14.79933024 59258
KUIPER-00023            
1 63737U 25088P   26148.19985175  .00002905  00000+0  40980-3 0  9994
2 63737  51.9001 113.9531 0000812  69.0199 291.0850 14.79943042 59532
