OBJECT_NAME,OBJECT_ID,EPOCH,MEAN_MOTION,ECCENTRICITY,INCLINATION,RA_OF_ASC_NODE,ARG_OF_PERICENTER,MEAN_ANOMALY,EPHEMERIS_TYPE,CLASSIFICATION_TYPE,NORAD_CAT_ID,ELEMENT_SET_NO,REV_AT_EPOCH,BSTAR,MEAN_MOTION_DOT,MEAN_MOTION_DDOT
STARLINK-33915,2025-087M,2026-05-28T04:59:05.771616,15.30209807,.00007963,53.1581,210.2390,92.1947,267.9145,0,U,63708,999,6137,.36086763E-3,.10347E-3,0
STARLINK-33862,2025-087N,2026-05-28T04:49:59.987136,15.30216592,.00012432,53.1579,210.2021,91.8282,268.2861,0,U,63709,999,6137,.96741614E-3,.28417E-3,0
STARLINK-33920,2025-087P,2026-05-28T04:53:19.107168,15.31718940,.00008643,53.1580,210.2188,74.4124,285.6973,0,U,63710,999,6137,.68314381E-3,.20906E-3,0
STARLINK-33580,2025-087Q,2026-05-28T05:00:02.623680,15.31725172,.00016457,53.1594,210.2451,114.7228,245.3945,0,U,63711,999,6137,.68984846E-3,.21119E-3,0
STARLINK-33783,2025-087R,2026-05-28T04:39:52.537248,15.31728148,.00013713,53.1590,210.1600,92.4904,267.6254,0,U,63712,999,6137,.83206933E-3,.25566E-3,0
STARLINK-33773,2025-087S,2026-05-28T03:46:06.756960,15.31716451,.00013697,53.1599,209.9251,82.9353,277.1804,0,U,63713,999,6137,.6668815E-3,.20396E-3,0
STARLINK-33745,2025-087T,2026-05-27T11:11:06.016704,15.30194092,.00012419,53.1591,213.4335,81.7230,278.3911,0,U,63714,999,6126,.18238121E-3,.5045E-4,0
STARLINK-33728,2025-087U,2026-05-27T11:21:44.314848,15.30190067,.00012098,53.1586,213.4785,79.7186,280.3951,0,U,63715,999,6126,.62513022E-3,.18195E-3,0
STARLINK-33749,2025-087V,2026-05-28T06:20:33.691776,15.31711687,.000113,53.1566,209.8805,97.9523,262.1607,0,U,63716,999,6138,.51003065E-3,.155E-3,0
STARLINK-33725,2025-087W,2026-05-28T04:40:52.698432,15.30218153,.00014512,53.1589,210.1604,100.2296,259.8868,0,U,63717,999,6137,.73782964E-3,.21569E-3,0
STARLINK-33641,2025-087X,2026-05-28T04:19:43.014144,15.31722902,.0001373,53.1598,210.0687,92.0777,268.0382,0,U,63718,999,6137,.75207771E-3,.23062E-3,0
STARLINK-33727,2025-087Y,2026-05-27T10:36:20.341440,15.34404541,.00012127,53.1604,212.5764,80.8755,279.2385,0,U,63719,999,6127,.88763106E-3,.29737E-3,0
STARLINK-33757,2025-087Z,2026-05-28T06:30:07.465536,15.30220571,.00011323,53.1576,209.9194,92.6364,267.4767,0,U,63720,999,6138,.74662277E-3,.21833E-3,0
STARLINK-33774,2025-087AA,2026-05-27T14:27:30.848832,15.31721217,.0000989,53.1569,212.8667,74.9028,285.2083,0,U,63721,999,6128,.76043E-3,.23321E-3,0
STARLINK-33767,2025-087AB,2026-05-28T06:11:55.232160,15.30191050,.00011766,53.1581,209.8419,89.4392,270.6744,0,U,63722,999,6138,.65960765E-3,.19222E-3,0
STARLINK-33806,2025-087AC,2026-05-28T04:46:57.343584,15.30214261,.00013339,53.1588,210.1837,91.7028,268.4126,0,U,63723,999,6137,.49284879E-3,.14272E-3,0
KUIPER-00008,2025-088A,2026-05-28T05:15:05.280768,14.79937024,.00009084,51.8995,96.3306,91.8214,268.2852,0,U,63724,999,5982,.53063691E-3,.3827E-4,0
KUIPER-00009,2025-088B,2026-05-28T03:58:58.451520,14.79965906,.00004234,51.9022,114.1835,38.2079,321.8914,0,U,63725,999,5956,.27313228E-3,.1863E-4,0
KUIPER-00010,2025-088C,2026-05-28T06:11:15.351648,14.79934952,.0000803,51.9023,91.2532,70.6751,289.4298,0,U,63726,999,5951,.15844442E-3,.987E-5,0
KUIPER-00011,2025-088D,2026-05-27T14:35:48.665760,14.79939137,.0000916,51.8989,101.6786,49.4596,310.6446,0,U,63727,999,5944,.76964E-4,.366E-5,0
KUIPER-00012,2025-088E,2026-05-28T04:45:39.957696,14.79919693,.00007171,51.9012,84.0023,97.9628,262.1416,0,U,63728,999,5969,.27603909E-3,.1883E-4,0
KUIPER-00013,2025-088F,2026-05-28T04:43:49.044288,14.79929780,.00009084,51.9030,116.5262,22.1045,337.9957,0,U,63729,999,5934,-.36117133E-4,-.496E-5,0
KUIPER-00014,2025-088G,2026-05-28T03:55:10.458336,14.79925112,.00003985,51.9006,116.6162,44.6694,315.4300,0,U,63730,999,5915,-.67426588E-4,-.735E-5,0
KUIPER-00015,2025-088H,2026-05-28T02:51:02.407968,14.79953508,.00006639,51.8975,126.8876,47.8220,312.2799,0,U,63731,999,5946,.30282365E-3,.2089E-4,0
KUIPER-00016,2025-088J,2026-05-28T05:28:29.094528,14.79906770,.00007672,51.9003,118.8509,83.5340,276.5710,0,U,63732,999,5912,.26446443E-3,.1794E-4,0
KUIPER-00018,2025-088K,2026-05-28T03:18:11.467008,14.79916989,.00007278,51.9045,109.2700,99.5463,260.5582,0,U,63733,999,5925,-.2619588E-5,-.241E-5,0
KUIPER-00019,2025-088L,2026-05-28T02:19:22.246464,14.79930084,.00004561,51.9005,108.2195,158.4185,201.6797,0,U,63734,999,5926,.10301659E-3,.564E-5,0
KUIPER-00020,2025-088M,2026-05-28T06:28:48.340416,14.79938530,.00012042,51.9018,111.1941,19.5298,340.5710,0,U,63735,999,5944,.23699637E-3,.1586E-4,0
KUIPER-00021,2025-088N,2026-05-28T02:25:42.097152,14.79933024,.0001271,51.9005,111.8985,89.1757,270.9351,0,U,63736,999,5925,.1702209E-4,-.92E-6,0
KUIPER-00023,2025-088P,2026-05-28T04:47:47.191200,14.79943042,.00008124,51.9001,113.9531,69.0199,291.0850,0,U,63737,999,5953,.40979909E-3,.2905E-4,0
